EUTELSAT 7A             
1 28187U 04008A   25318.49698669  .00000108  00000+0  00000+0 0  9991
2 28187   5.2853  74.5674 0001591 207.4740 171.5198  1.00272579 79207
EUTELSAT 174A           
1 28924U 05052A   25318.70178123  .00000016  00000+0  00000+0 0  9990
2 28924   3.6761  79.1800 0006484 157.5724 243.9788  1.00273878 50189
EUTELSAT HOTBIRD 13B    
1 29270U 06032A   25318.74520147  .00000160  00000+0  00000+0 0  9995
2 29270   1.1066  84.5953 0003510 145.7322 125.1357  1.00270281 45153
EUTELSAT HOTBIRD 13C    
1 33459U 08065A   25318.73367475 -.00000210  00000+0  00000+0 0  9996
2 33459   2.3979  81.7187 0001271 110.7318 100.5266  1.00054947 45199
EUTELSAT 36B            
1 36101U 09065A   25318.74866816  .00000116  00000+0  00000+0 0  9992
2 36101   0.0514  24.4148 0006265 213.7800 135.9218  1.00272732 58552
EUTELSAT KA-SAT 9A      
1 37258U 10069A   25318.74043477  .00000065  00000+0  00000+0 0  9995
2 37258   0.0625 315.5192 0002213 226.3445 147.8477  1.00268433 41853
EUTELSAT 7 WEST A       
1 37816U 11051A   25318.73722809 -.00000056  00000+0  00000+0 0  9990
2 37816   0.0683  13.3666 0006246 203.5219  95.2973  1.00271989 51726
EUTELSAT 16A            
1 37836U 11057A   25318.74182146  .00000108  00000+0  00000+0 0  9990
2 37836   0.0652  11.7881 0005844 228.5149  96.8598  1.00272653  5174
